STARLINK-2655           
1 48449U 21040X   26068.56559856 -.00000433  00000+0 -24980-5 0  9996
2 48449  53.1635 178.7122 0001428  91.6237 268.4927 15.30196580266667
ION SCV-008             
1 55051U 23001AU  26068.82429008  .00008336  00000+0  31423-3 0  9992
2 55051  97.5676 163.6060 0015192   8.5420 351.6074 15.27226640176169
